{"type": "FeatureCollection", "features": [ {"type": "Feature", "properties": {"norad_id": 65943, "name": "E-KAGAKU-1", "group": "stations", "lat": -50.674026818670846, "lon": 91.95760075869781, "alt_km": 397.18982637359386, "timestamp": "2025-12-07T07:31:35.103377+00:00", "meta": {"OBJECT_NAME": "E-KAGAKU-1", "OBJECT_ID": "1998-067XQ", "EPOCH": "2025-12-06T18:01:16.505472", "MEAN_MOTION": 15.5838918, "ECCENTRICITY": 0.00030246, "INCLINATION": 51.6289, "RA_OF_ASC_NODE": 170.0575, "ARG_OF_PERICENTER": 170.5434, "MEAN_ANOMALY": 189.5616, "EPHEMERIS_TYPE": 0, "CLASSIFICATION_TYPE": "U", "NORAD_CAT_ID": 65943, "ELEMENT_SET_NO": 999, "REV_AT_EPOCH": 892, "BSTAR": 0.0011230983, "MEAN_MOTION_DOT": 0.00087541, "MEAN_MOTION_DDOT": 0}, "tle": {"line1": "1 65943U 98067XQ  25340.75088548  .00087541  00000+0  11231-2 0  9990", "line2": "2 65943  51.6289 170.0575 0003024 170.5434 189.5616 15.58389180  8921"}}, "geometry": {"type": "Point", "coordinates": [91.95760075869781, -50.674026818670846]}}, {"type": "Feature", "properties": {"norad_id": 66052, "name": "HRC MONOBLOCK CAMERA", "group": "stations", "lat": 1.9687229949709009, "lon": 170.11127361077186, "alt_km": 409.2328748033269, "timestamp": "2025-12-07T07:31:35.103387+00:00", "meta": {"OBJECT_NAME": "HRC MONOBLOCK CAMERA", "OBJECT_ID": "1998-067XR", "EPOCH": "2025-12-06T22:15:10.603584", "MEAN_MOTION": 15.53573464, "ECCENTRICITY": 0.00040212, "INCLINATION": 51.6285, "RA_OF_ASC_NODE": 170.4765, "ARG_OF_PERICENTER": 160.7333, "MEAN_ANOMALY": 199.381, "EPHEMERIS_TYPE": 0, "CLASSIFICATION_TYPE": "U", "NORAD_CAT_ID": 66052, "ELEMENT_SET_NO": 999, "REV_AT_EPOCH": 793, "BSTAR": 0.00071615141, "MEAN_MOTION_DOT": 0.00046263, "MEAN_MOTION_DDOT": 0}, "tle": {"line1": "1 66052U 98067XR  25340.92720606  .00046263  00000+0  71615-3 0  9998", "line2": "2 66052  51.6285 170.4765 0004021 160.7333 199.3810 15.53573464  7931"}}, "geometry": {"type": "Point", "coordinates": [170.11127361077186, 1.9687229949709009]}}, {"type": "Feature", "properties": {"norad_id": 66174, "name": "HTV-X1", "group": "stations", "lat": -14.43593577435176, "lon": 157.57554101154778, "alt_km": 422.3408600342673, "timestamp": "2025-12-07T07:31:35.103431+00:00", "meta": {"OBJECT_NAME": "HTV-X1", "OBJECT_ID": "2025-241A", "EPOCH": "2025-12-06T20:46:13.238400", "MEAN_MOTION": 15.49374779, "ECCENTRICITY": 0.00034973, "INCLINATION": 51.6304, "RA_OF_ASC_NODE": 171.5636, "ARG_OF_PERICENTER": 213.1314, "MEAN_ANOMALY": 146.9456, "EPHEMERIS_TYPE": 0, "CLASSIFICATION_TYPE": "U", "NORAD_CAT_ID": 66174, "ELEMENT_SET_NO": 999, "REV_AT_EPOCH": 51, "BSTAR": 0.00025393652, "MEAN_MOTION_DOT": 0.0001375, "MEAN_MOTION_DDOT": 0}, "tle": {"line1": "1 66174U 25241A   25340.86543100  .00013750  00000+0  25394-3 0  9990", "line2": "2 66174  51.6304 171.5636 0003497 213.1314 146.9456 15.49374779   519"}}, "geometry": {"type": "Point", "coordinates": [157.57554101154778, -14.43593577435176]}}, {"type": "Feature", "properties": {"norad_id": 66515, "name": "SZ-21 MODULE", "group": "stations", "lat": 41.437749670457904, "lon": 141.2538131374802, "alt_km": 377.964019098943, "timestamp": "2025-12-07T07:31:35.103474+00:00", "meta": {"OBJECT_NAME": "SZ-21 MODULE", "OBJECT_ID": "2025-246C", "EPOCH": "2025-12-06T21:55:46.522560", "MEAN_MOTION": 15.62073048, "ECCENTRICITY": 0.00061635, "INCLINATION": 41.4777, "RA_OF_ASC_NODE": 51.5754, "ARG_OF_PERICENTER": 227.7607, "MEAN_ANOMALY": 132.271, "EPHEMERIS_TYPE": 0, "CLASSIFICATION_TYPE": "U", "NORAD_CAT_ID": 66515, "ELEMENT_SET_NO": 999, "REV_AT_EPOCH": 353, "BSTAR": 0.00038291804, "MEAN_MOTION_DOT": 0.00034334, "MEAN_MOTION_DDOT": 0}, "tle": {"line1": "1 66515U 25246C   25340.91373290  .00034334  00000+0  38292-3 0  9993", "line2": "2 66515  41.4777  51.5754 0006163 227.7607 132.2710 15.62073048  3532"}}, "geometry": {"type": "Point", "coordinates": [141.2538131374802, 41.437749670457904]}}, {"type": "Feature", "properties": {"norad_id": 66645, "name": "SHENZHOU-22", "group": "stations", "lat": -37.73508583933797, "lon": -69.15985076155766, "alt_km": 395.0979992083612, "timestamp": "2025-12-07T07:31:35.103492+00:00", "meta": {"OBJECT_NAME": "SHENZHOU-22", "OBJECT_ID": "2025-272A", "EPOCH": "2025-12-06T21:14:35.052288", "MEAN_MOTION": 15.58811356, "ECCENTRICITY": 0.00094534, "INCLINATION": 41.4683, "RA_OF_ASC_NODE": 52.2413, "ARG_OF_PERICENTER": 344.5349, "MEAN_ANOMALY": 15.5199, "EPHEMERIS_TYPE": 0, "CLASSIFICATION_TYPE": "U", "NORAD_CAT_ID": 66645, "ELEMENT_SET_NO": 999, "REV_AT_EPOCH": 26300, "BSTAR": 0.00035334049, "MEAN_MOTION_DOT": 0.00027906, "MEAN_MOTION_DDOT": 0}, "tle": {"line1": "1 66645U 25272A   25340.88512792  .00027906  00000+0  35334-3 0  9995", "line2": "2 66645  41.4683  52.2413 0009453 344.5349  15.5199 15.58811356263009"}}, "geometry": {"type": "Point", "coordinates": [-69.15985076155766, -37.73508583933797]}}, {"type": "Feature", "properties": {"norad_id": 66646, "name": "CZ-2F R/B", "group": "stations", "lat": 41.26364279416043, "lon": 127.32894102953743, "alt_km": 176.59635914658975, "timestamp": "2025-12-07T07:31:35.103517+00:00", "meta": {"OBJECT_NAME": "CZ-2F R/B", "OBJECT_ID": "2025-272B", "EPOCH": "2025-12-06T20:55:41.021184", "MEAN_MOTION": 16.34691308, "ECCENTRICITY": 0.0038093, "INCLINATION": 41.4537, "RA_OF_ASC_NODE": 46.5611, "ARG_OF_PERICENTER": 222.6714, "MEAN_ANOMALY": 137.119, "EPHEMERIS_TYPE": 0, "CLASSIFICATION_TYPE": "U", "NORAD_CAT_ID": 66646, "ELEMENT_SET_NO": 999, "REV_AT_EPOCH": 189, "BSTAR": 0.00045837, "MEAN_MOTION_DOT": 0.04803871, "MEAN_MOTION_DDOT": 7.8554e-06}, "tle": {"line1": "1 66646U 25272B   25340.87200256  .04803871  78554-5  45837-3 0  9995", "line2": "2 66646  41.4537  46.5611 0038093 222.6714 137.1190 16.34691308  1895"}}, "geometry": {"type": "Point", "coordinates": [127.32894102953743, 41.26364279416043]}}, {"type": "Feature", "properties": {"norad_id": 66664, "name": "SOYUZ-MS 28", "group": "stations", "lat": -14.435930920611737, "lon": 157.57554519439287, "alt_km": 422.3408597631269, "timestamp": "2025-12-07T07:31:35.103529+00:00", "meta": {"OBJECT_NAME": "SOYUZ-MS 28", "OBJECT_ID": "2025-275A", "EPOCH": "2025-12-06T20:46:13.238400", "MEAN_MOTION": 15.49374779, "ECCENTRICITY": 0.00034973, "INCLINATION": 51.6304, "RA_OF_ASC_NODE": 171.5636, "ARG_OF_PERICENTER": 213.1314, "MEAN_ANOMALY": 146.9456, "EPHEMERIS_TYPE": 0, "CLASSIFICATION_TYPE": "U", "NORAD_CAT_ID": 66664, "ELEMENT_SET_NO": 999, "REV_AT_EPOCH": 128, "BSTAR": 0.00025393652, "MEAN_MOTION_DOT": 0.0001375, "MEAN_MOTION_DDOT": 0}, "tle": {"line1": "1 66664U 25275A   25340.86543100  .00013750  00000+0  25394-3 0  9991", "line2": "2 66664  51.6304 171.5636 0003497 213.1314 146.9456 15.49374779  1288"}}, "geometry": {"type": "Point", "coordinates": [157.57554519439287, -14.435930920611737]}}, {"type": "Feature", "properties": {"norad_id": 66906, "name": "1998-067XS", "group": "stations", "lat": -5.127927947540016, "lon": 165.2421121648399, "alt_km": 420.4090700776869, "timestamp": "2025-12-07T07:31:35.103540+00:00", "meta": {"OBJECT_NAME": "1998-067XS", "OBJECT_ID": "1998-067XS", "EPOCH": "2025-12-06T22:16:16.867200", "MEAN_MOTION": 15.50144102, "ECCENTRICITY": 0.00041468, "INCLINATION": 51.6299, "RA_OF_ASC_NODE": 171.2315, "ARG_OF_PERICENTER": 177.6061, "MEAN_ANOMALY": 182.4948, "EPHEMERIS_TYPE": 0, "CLASSIFICATION_TYPE": "U", "NORAD_CAT_ID": 66906, "ELEMENT_SET_NO": 999, "REV_AT_EPOCH": 71, "BSTAR": 0.00061899955, "MEAN_MOTION_DOT": 0.00035216, "MEAN_MOTION_DDOT": 0}, "tle": {"line1": "1 66906U 98067XS  25340.92797300  .00035216  00000+0  61900-3 0  9993", "line2": "2 66906  51.6299 171.2315 0004146 177.6061 182.4948 15.50144102   711"}}, "geometry": {"type": "Point", "coordinates": [165.2421121648399, -5.127927947540016]}}, {"type": "Feature", "properties": {"norad_id": 66907, "name": "1998-067XT", "group": "stations", "lat": -2.6246585470821753, "lon": 167.23133156968314, "alt_km": 419.51557487039645, "timestamp": "2025-12-07T07:31:35.103550+00:00", "meta": {"OBJECT_NAME": "1998-067XT", "OBJECT_ID": "1998-067XT", "EPOCH": "2025-12-06T22:15:35.290656", "MEAN_MOTION": 15.50498848, "ECCENTRICITY": 0.00052114, "INCLINATION": 51.6299, "RA_OF_ASC_NODE": 171.2284, "ARG_OF_PERICENTER": 194.7186, "MEAN_ANOMALY": 165.3652, "EPHEMERIS_TYPE": 0, "CLASSIFICATION_TYPE": "U", "NORAD_CAT_ID": 66907, "ELEMENT_SET_NO": 999, "REV_AT_EPOCH": 71, "BSTAR": 0.001226899, "MEAN_MOTION_DOT": 0.00071486, "MEAN_MOTION_DDOT": 0}, "tle": {"line1": "1 66907U 98067XT  25340.92749179  .00071486  00000+0  12269-2 0  9997", "line2": "2 66907  51.6299 171.2284 0005211 194.7186 165.3652 15.50498848   710"}}, "geometry": {"type": "Point", "coordinates": [167.23133156968314, -2.6246585470821753]}}, {"type": "Feature", "properties": {"norad_id": 66908, "name": "1998-067XU", "group": "stations", "lat": -1.988891074771086, "lon": 167.73410219954175, "alt_km": 419.44193462191924, "timestamp": "2025-12-07T07:31:35.103560+00:00", "meta": {"OBJECT_NAME": "1998-067XU", "OBJECT_ID": "1998-067XU", "EPOCH": "2025-12-06T22:15:23.816736", "MEAN_MOTION": 15.50551079, "ECCENTRICITY": 0.00054036, "INCLINATION": 51.6296, "RA_OF_ASC_NODE": 171.2272, "ARG_OF_PERICENTER": 194.2976, "MEAN_ANOMALY": 165.7861, "EPHEMERIS_TYPE": 0, "CLASSIFICATION_TYPE": "U", "NORAD_CAT_ID": 66908, "ELEMENT_SET_NO": 999, "REV_AT_EPOCH": 71, "BSTAR": 0.0011470427, "MEAN_MOTION_DOT": 0.00066891, "MEAN_MOTION_DDOT": 0}, "tle": {"line1": "1 66908U 98067XU  25340.92735899  .00066891  00000+0  11470-2 0  9999", "line2": "2 66908  51.6296 171.2272 0005403 194.2976 165.7861 15.50551079   712"}}, "geometry": {"type": "Point", "coordinates": [167.73410219954175, -1.988891074771086]}}]}